H1 CPF  1  HTS 2022  2 27 12  5581 larets           NONE
H2  0304206 5557    27944 2022 02 27  0  0  0 2022 03 04  0  0  0   180 1 1  0 0 0
H5  0.0560 
H9 
10 0 59640  33480.00000  0    2313700.309    6662980.927    -356346.430
10 0 59640  33660.00000  0    2514388.571    6382227.229   -1678838.234
10 0 59640  33840.00000  0    2613033.849    5865105.557   -2939750.413
10 0 59640  34020.00000  0    2600182.618    5133384.787   -4092895.175
10 0 59640  34200.00000  0    2471144.317    4216852.633   -5096130.052
10 0 59640  34380.00000  0    2226332.239    3152041.676   -5912899.310
10 0 59640  34560.00000  0    1871378.955    1980717.819   -6513538.466
10 0 59640  34740.00000  0    1417024.591     748202.733   -6876303.545
10 0 59640  34920.00000  0     878788.242    -498393.092   -6988104.804
10 0 59640  35100.00000  0     276431.213   -1711964.783   -6844938.622
10 0 59640  35280.00000  0    -366766.139   -2847172.932   -6452010.526
10 0 59640  35460.00000  0   -1024891.959   -3862119.924   -5823561.210
10 0 59640  35640.00000  0   -1670430.173   -4719897.479   -4982386.883
10 0 59640  35820.00000  0   -2275393.221   -5389952.316   -3959063.046
10 0 59640  36000.00000  0   -2812522.435   -5849219.773   -2790877.460
10 0 59640  36180.00000  0   -3256502.611   -6082970.161   -1520497.869
10 0 59640  36360.00000  0   -3585135.199   -6085327.849    -194414.327
10 0 59640  36540.00000  0   -3780408.119   -5859426.636    1138791.459
10 0 59640  36720.00000  0   -3829401.906   -5417185.700    2430272.404
10 0 59640  36900.00000  0   -3724983.837   -4778716.097    3632753.499
10 0 59640  37080.00000  0   -3466254.293   -3971393.680    4702294.115
10 0 59640  37260.00000  0   -3058726.389   -3028651.106    5599901.593
10 0 59640  37440.00000  0   -2514234.302   -1988555.179    6292931.367
10 0 59640  37620.00000  0   -1850579.655    -892245.910    6756234.076
10 0 59640  37800.00000  0   -1090932.233     217702.081    6973022.725
10 0 59640  37980.00000  0    -263013.336    1298926.394    6935433.575
10 0 59640  38160.00000  0     601907.655    2310875.676    6644792.194
10 0 59640  38340.00000  0    1470181.421    3216318.044    6111574.443
10 0 59640  38520.00000  0    2307072.349    3982708.198    5355062.172
10 0 59640  38700.00000  0    3078138.771    4583376.325    4402698.147
10 0 59640  38880.00000  0    3750652.975    4998491.685    3289141.087
10 0 59640  39060.00000  0    4295003.357    5215763.310    2055045.361
10 0 59640  39240.00000  0    4686017.063    5230838.755     745582.104
10 0 59640  39420.00000  0    4904125.341    5047372.107    -591235.441
10 0 59640  39600.00000  0    4936313.362    4676750.856   -1906360.690
10 0 59640  39780.00000  0    4776798.734    4137491.298   -3151565.083
10 0 59640  39960.00000  0    4427405.363    3454341.627   -4281253.435
10 0 59640  40140.00000  0    3897610.112    2657139.060   -5254160.108
10 0 59640  40320.00000  0    3204269.469    1779484.146   -6034853.411
10 0 59640  40500.00000  0    2371044.178     857302.330   -6594995.335
10 0 59640  40680.00000  0    1427553.400     -72637.020   -6914318.206
10 0 59640  40860.00000  0     408302.947    -974181.480   -6981306.136
10 0 59640  41040.00000  0    -648580.855   -1813188.331   -6793573.456
10 0 59640  41220.00000  0   -1702765.161   -2558799.994   -6357936.254
10 0 59640  41400.00000  0   -2713233.235   -3184570.896   -5690182.577
10 0 59640  41580.00000  0   -3639867.804   -3669410.101   -4814541.218
10 0 59640  41760.00000  0   -4445050.298   -3998312.289   -3762854.601
10 0 59640  41940.00000  0   -5095210.446   -4162842.939   -2573462.055
10 0 59640  42120.00000  0   -5562257.999   -4161354.378   -1289823.712
10 0 59640  42300.00000  0   -5824825.223   -3998916.718      41073.300
10 0 59640  42480.00000  0   -5869254.351   -3686963.558    1370464.711
10 0 59640  42660.00000  0   -5690272.698   -3242666.557    2649644.680
10 0 59640  42840.00000  0   -5291312.563   -2688066.989    3831797.659
10 0 59640  43020.00000  0   -4684466.336   -2049017.236    4873741.200
10 0 59640  43200.00000  0   -3890082.281   -1353987.138    5737505.516
10 0 59640  43380.00000  0   -2936035.324    -632803.590    6391689.637
10 0 59640  43560.00000  0   -1856707.623      84622.292    6812563.710
10 0 59640  43740.00000  0    -691719.925     769524.325    6984878.941
10 0 59640  43920.00000  0     515525.646    1395416.518    6902378.779
10 0 59640  44100.00000  0    1719447.485    1939105.172    6568010.955
10 0 59640  44280.00000  0    2873986.310    2381543.829    5993833.841
10 0 59640  44460.00000  0    3934355.706    2708503.566    5200620.804
10 0 59640  44640.00000  0    4858787.692    2911040.202    4217161.319
10 0 59640  44820.00000  0    5610207.901    2985741.199    3079269.282
10 0 59640  45000.00000  0    6157776.815    2934735.368    1828509.218
10 0 59640  45180.00000  0    6478209.211    2765461.381     510681.198
10 0 59640  45360.00000  0    6556810.174    2490203.810    -825883.930
10 0 59640  45540.00000  0    6388156.671    2125411.820   -2132147.128
10 0 59640  45720.00000  0    5976394.410    1690842.276   -3360210.830
10 0 59640  45900.00000  0    5335134.784    1208569.669   -4465122.294
10 0 59640  46080.00000  0    4486951.719     701913.842   -5406542.441
10 0 59640  46260.00000  0    3462517.255     194348.881   -6150206.935
10 0 59640  46440.00000  0    2299430.636    -291553.195   -6669136.719
10 0 59640  46620.00000  0    1040794.331    -735099.218   -6944565.163
10 0 59640  46800.00000  0    -266399.503   -1118334.452   -6966567.398
10 0 59640  46980.00000  0   -1573019.657   -1426752.781   -6734383.889
10 0 59640  47160.00000  0   -2829624.690   -1649837.463   -6256439.603
10 0 59640  47340.00000  0   -3988315.718   -1781416.824   -5550057.505
10 0 59640  47520.00000  0   -5004559.232   -1819826.433   -4640876.875
10 0 59640  47700.00000  0   -5838924.466   -1767871.409   -3561973.504
10 0 59640  47880.00000  0   -6458661.067   -1632587.672   -2352696.675
10 0 59640  48060.00000  0   -6839045.424   -1424809.476   -1057250.367
10 0 59640  48240.00000  0   -6964424.444   -1158560.485     276933.812
10 0 59640  48420.00000  0   -6828897.441    -850295.343    1600969.327
10 0 59640  48600.00000  0   -6436593.148    -518032.233    2866353.685
10 0 59640  48780.00000  0   -5801527.582    -180423.542    4026789.599
10 0 59640  48960.00000  0   -4947051.303     144187.423    5039905.917
10 0 59640  49140.00000  0   -3904922.863     438671.977    5868800.435
10 0 59640  49320.00000  0   -2714068.561     687941.896    6483353.615
10 0 59640  49500.00000  0   -1419084.039     879656.390    6861279.162
10 0 59640  49680.00000  0     -68542.385    1004784.306    6988884.214
10 0 59640  49860.00000  0    1286822.908    1058001.310    6861526.501
10 0 59640  50040.00000  0    2596002.396    1037909.461    6483772.031
10 0 59640  50220.00000  0    3809611.361     947072.432    5869250.726
10 0 59640  50400.00000  0    4881751.333     791864.091    5040206.566
10 0 59640  50580.00000  0    5771767.718     582134.509    4026746.886
10 0 59640  50760.00000  0    6445845.102     330704.999    2865799.433
10 0 59640  50940.00000  0    6878361.421      52713.140    1599790.972
10 0 59640  51120.00000  0    7052932.967    -235167.836     275096.043
10 0 59640  51300.00000  0    6963093.723    -515593.960   -1059692.437
10 0 59640  51480.00000  0    6612562.036    -771457.676   -2355598.234
10 0 59640  51660.00000  0    6015075.842    -986787.701   -3565113.909
10 0 59640  51840.00000  0    5193808.972   -1147593.019   -4643983.438
10 0 59640  52020.00000  0    4180405.381   -1242604.903   -5552836.659
10 0 59640  52200.00000  0    3013689.952   -1263882.811   -6258611.633
10 0 59640  52380.00000  0    1738121.944   -1207258.572   -6735717.699
10 0 59640  52560.00000  0     402066.853   -1072597.415   -6966910.885
10 0 59640  52740.00000  0    -944045.256    -863872.580   -6943869.006
10 0 59640  52920.00000  0   -2249611.147    -589049.872   -6667462.151
10 0 59640  53100.00000  0   -3465738.125    -259785.476   -6147716.097
10 0 59640  53280.00000  0   -4547059.662     109052.710   -5403473.130
10 0 59640  53460.00000  0   -5453436.623     500025.043   -4461756.321
10 0 59640  53640.00000  0   -6151483.108     893899.735   -3356839.617
10 0 59640  53820.00000  0   -6615856.034    1270545.803   -2129038.648
10 0 59640  54000.00000  0   -6830241.400    1609897.867    -823251.909
10 0 59640  54180.00000  0   -6787985.152    1892946.328     512698.699
10 0 59640  54360.00000  0   -6492322.513    2102699.154    1829860.833
10 0 59640  54540.00000  0   -5956194.947    2225068.018    3079991.932
10 0 59640  54720.00000  0   -5201663.867    2249629.842    4217368.492
10 0 59640  54900.00000  0   -4258953.048    2170221.126    5200479.105
10 0 59640  55080.00000  0   -3165181.515    1985340.627    5993529.144
10 0 59640  55260.00000  0   -1962855.607    1698346.397    6567713.250
10 0 59640  55440.00000  0    -698182.954    1317437.970    6902216.475
10 0 59640  55620.00000  0     580712.281     855426.136    6984916.807
10 0 59640  55800.00000  0    1825605.224     329302.320    6812790.360
10 0 59640  55980.00000  0    2989966.969    -240379.023    6392017.543
10 0 59640  56160.00000  0    4030691.393    -830289.278    5737787.477
10 0 59640  56340.00000  0    4909700.070   -1415262.725    4873795.119
10 0 59640  56520.00000  0    5595367.669   -1969351.256    3831436.688
10 0 59640  56700.00000  0    6063715.793   -2466956.314    2648714.489
10 0 59640  56880.00000  0    6299315.544   -2883991.919    1368872.512
10 0 59640  57060.00000  0    6295850.425   -3199020.680      38809.099
10 0 59640  57240.00000  0    6056305.067   -3394304.733   -1292677.211
10 0 59640  57420.00000  0    5592760.209   -3456712.030   -2576732.992
10 0 59640  57600.00000  0    4925801.355   -3378426.889   -3766296.032
10 0 59640  57780.00000  0    4083580.155   -3157430.976   -4817857.436
99
